{"type":"FeatureCollection","features":[{"type":"Feature","geometry":{"type":"MultiPoint","coordinates":[]},"id":"0","properties":{"area_sq_km":391.2256764361149,"class":0,"class_name":"Ocean"}},{"type":"Feature","geometry":{"type":"MultiPoint","coordinates":[]},"id":"1","properties":{"area_sq_km":712.4356154266843,"class":1,"class_name":"UrbanAreas"}},{"type":"Feature","geometry":{"type":"MultiPoint","coordinates":[]},"id":"2","properties":{"area_sq_km":205.9286400313036,"class":2,"class_name":"Vegetation"}}]}