{"type":"FeatureCollection","features":[{"type":"Feature","geometry":{"type":"MultiPoint","coordinates":[]},"id":"0","properties":{"area_sq_km":392.4837533239895,"class":0,"class_name":"Ocean"}},{"type":"Feature","geometry":{"type":"MultiPoint","coordinates":[]},"id":"1","properties":{"area_sq_km":587.0973268965512,"class":1,"class_name":"UrbanAreas"}},{"type":"Feature","geometry":{"type":"MultiPoint","coordinates":[]},"id":"2","properties":{"area_sq_km":223.27191847113568,"class":2,"class_name":"Vegetation"}},{"type":"Feature","geometry":{"type":"MultiPoint","coordinates":[]},"id":"3","properties":{"area_sq_km":106.73693320265865,"class":3,"class_name":"OtherLand"}}]}