{"type":"FeatureCollection","features":[{"type":"Feature","geometry":{"type":"MultiPoint","coordinates":[]},"id":"0","properties":{"area_sq_km":105.94983905458838,"class":0,"class_name":"Ocean"}},{"type":"Feature","geometry":{"type":"MultiPoint","coordinates":[]},"id":"1","properties":{"area_sq_km":583.9881988903282,"class":1,"class_name":"UrbanAreas"}},{"type":"Feature","geometry":{"type":"MultiPoint","coordinates":[]},"id":"2","properties":{"area_sq_km":226.59583845962675,"class":2,"class_name":"Vegetation"}},{"type":"Feature","geometry":{"type":"MultiPoint","coordinates":[]},"id":"3","properties":{"area_sq_km":107.66790080568717,"class":3,"class_name":"OtherLand"}},{"type":"Feature","geometry":{"type":"MultiPoint","coordinates":[]},"id":"4","properties":{"area_sq_km":285.38815468417687,"class":4,"class_name":"WaterBodies"}}]}